NUSAT-1 (FRESCO)        
1 41557U 16033B   22178.88094087  .00009991  00000+0  29681-3 0  9995
2 41557  97.3887 276.5963 0009961 348.6531 120.7752 15.34927513338984
BEESAT-4                
1 41619U 16040W   22178.37513951  .00011866  00000+0  39297-3 0  9990
2 41619  97.2163 228.7401 0011263  85.7569 274.4959 15.31389180322240
CAS-2T & KS-1Q          
1 41847U 16066G   22178.42832704  .00000788  00000+0  12773-3 0  9998
2 41847  98.5506 243.0896 0363888 179.8669 180.2681 14.38600286295788
NAYIF-1 (EO-88)         
1 42017U 17008BX  22178.14860476  .00013648  00000+0  40485-3 0  9991
2 42017  97.2688 244.1225 0004962 189.1232 170.9923 15.34923272298562
ZHUHAI-1 02 (CAS-4B)    
1 42759U 17034B   22178.75946713  .00003134  00000+0  19212-3 0  9992
2 42759  43.0181 275.8908 0009549 346.2387 150.1383 15.11988407277916
ZHUHAI-1 01 (CAS-4A)    
1 42761U 17034D   22178.72735433  .00003098  00000+0  18957-3 0  9991
2 42761  43.0179 274.8493 0009828 347.7555 142.0669 15.12074895277912
MAX VALIER SAT          
1 42778U 17036P   22178.34906098  .00006938  00000+0  26296-3 0  9997
2 42778  97.2042 219.1103 0008747 294.0161  66.0163 15.27157528278417
RADFXSAT (FOX-1B)       
1 43017U 17073E   22178.70634351  .00002285  00000+0  17481-3 0  9992
2 43017  97.6749  72.4816 0249106 153.9576 207.4423 14.81447043248636
FOX-1D (AO-92)          
1 43137U 18004AC  22178.43241447  .00008043  00000+0  28306-3 0  9996
2 43137  97.3690 253.4992 0006479 337.5020  22.5936 15.29573231247877
DIWATA-2B               
1 43678U 18084H   22178.77630926  .00000274  00000+0  32716-4 0  9994
2 43678  97.9719 312.1631 0008486 248.9063 111.1252 14.92183873199397
ES'HAIL 2               
1 43700U 18090A   22177.98167764  .00000153  00000+0  00000+0 0  9996
2 43700   0.0190  68.0488 0001017  54.8146 171.4153  1.00274592 13126
FOX-1CLIFF (AO-95)      
1 43770U 18099N   22178.41959606  .00001253  00000+0  11521-3 0  9991
2 43770  97.6213 244.5111 0012675 238.7372 121.2608 14.96484531194506
ITASAT 1                
1 43786U 18099AE  22178.74622718  .00001745  00000+0  15790-3 0  9993
2 43786  97.6237 245.7533 0013458 229.2454 130.7600 14.96625263194591
JY1SAT (JO-97)          
1 43803U 18099AX  22178.42638615  .00001342  00000+0  12100-3 0  9996
2 43803  97.6198 245.1999 0013448 230.3887 129.6148 14.97127540194566
UWE-4                   
1 43880U 18111E   22178.48575555  .00002646  00000+0  22766-3 0  9992
2 43880  97.6683  84.6213 0009721 289.9786  70.0389 14.98209378191207
NEXUS (FO-99)           
1 43937U 19003F   22178.56280487  .00009956  00000+0  33306-3 0  9995
2 43937  97.1293 211.5206 0022529 116.4025 243.9533 15.30915631191526
PSAT2 (NO-104)          
1 44354U 19036R   22178.11957412  .00068790 -48584-5  60071-3 0  9991
2 44354  28.5233 111.2865 0225738  79.6701 282.9264 15.41072381166172
JAISAT-1                
1 44419U 19038F   22178.46047875  .00006763  00000+0  33928-3 0  9993
2 44419  97.6355 148.6641 0021334  96.5115 263.8548 15.17459560164571
DUCHIFAT-3              
1 44854U 19089C   22178.75021308  .00002910  00000+0  22870-3 0  9991
2 44854  36.9668  39.2996 0009801 305.7455  54.2331 15.01143439139484
CAS-6 (TO-108)          
1 44881U 19093C   22178.77556577  .00000492  00000+0  68973-4 0  9997
2 44881  97.8925 257.8359 0015705 147.9403 212.2763 14.81739999136308
RS-44 & BREEZE-KM R/B   
1 44909U 19096E   22178.51068118  .00000039  00000+0  11940-3 0  9990
2 44909  82.5208 223.5941 0216273 296.3735  61.5307 12.79713641116792
ORBITAL FACTORY 2 (OF-2)
1 45113U 19071C   22178.26038641  .00021905  00000+0  44981-3 0  9997
2 45113  51.6395  11.0987 0009883 205.2228 154.8278 15.45890404134890
HUSKYSAT-1 (HO-107)     
1 45119U 19071J   22178.07808675  .00020389  00000+0  43363-3 0  9992
2 45119  51.6393  12.1055 0009755 200.5551 159.5044 15.44908304134854
BY70-2                  
1 45857U 20042B   22178.83899347  .00005947  00000+0  79297-3 0  9999
2 45857  97.9544 255.5789 0012285  86.9303 273.3277 14.79934698106993
SALSAT                  
1 46495U 20068K   22178.47178519  .00001037  00000+0  78306-4 0  9994
2 46495  97.7294 119.7753 0014994 241.5281 118.4435 15.04547685 95691
BY70-3                  
1 46839U 20079N   22178.76826855  .00017510  00000+0  40676-3 0  9994
2 46839  97.1985 250.7287 0003632 293.1971 215.4739 15.42405199 91830
RADFXSAT-2 (AO-109)     
1 47311U 21002C   22178.56301048  .00005608  00000+0  22997-3 0  9998
2 47311  60.6857 324.1853 0018027 344.5364  15.5171 15.25442644 80008
UVSQ-SAT                
1 47438U 21006AB  22178.71060410  .00004723  00000+0  25042-3 0  9995
2 47438  97.4369 237.5103 0010624 233.7025 126.3227 15.15801745 78838
DIY-1 (ARDUIQUBE)       
1 47963U 21022AH  22177.93213060  .00013797  00000+0  76492-3 0  9996
2 47963  97.5326  79.1825 0019224  98.1919 262.1494 15.13740728 68381
XW-3 (CAS-9)            
1 50466U 21131B   22178.74475275  .00000090  00000+0  44160-4 0  9997
2 50466  98.5805 255.9939 0005892 115.1047 245.0752 14.38504034 26390
TEVEL-3                 
1 50988U 22002E   22178.74426976  .00005754  00000+0  31531-3 0  9997
2 50988  97.4809 245.5542 0010471  37.0381  80.8553 15.14541837 24971
TEVEL-8                 
1 50989U 22002F   22178.75047209  .00005704  00000+0  31308-3 0  9994
2 50989  97.4826 245.5785 0010485  36.0208  85.9245 15.14490016 24978
TEVEL-5                 
1 50998U 22002Q   22178.76142164  .00005933  00000+0  32057-3 0  9997
2 50998  97.4804 245.6669 0011565  32.1343  83.5247 15.15020348 24988
TEVEL-6                 
1 50999U 22002R   22178.76133197  .00005962  00000+0  32208-3 0  9994
2 50999  97.4806 245.6650 0011644  31.8495  85.3423 15.15024986 24981
TEVEL-1                 
1 51013U 22002AF  22178.74678611  .00005720  00000+0  31370-3 0  9996
2 51013  97.4802 245.5402 0010228  37.4493  81.2832 15.14517742 24970
TEVEL-7                 
1 51062U 22002CG  22178.75083765  .00005716  00000+0  31383-3 0  9990
2 51062  97.4819 245.5692 0010289  36.0093  80.5007 15.14480162 24972
TEVEL-4                 
1 51063U 22002CH  22178.74740155  .00005676  00000+0  31172-3 0  9994
2 51063  97.4818 245.5626 0010312  36.4045  58.5582 15.14472083 24973
TEVEL-2                 
1 51069U 22002CP  22178.74702368  .00005777  00000+0  31664-3 0  9992
2 51069  97.4803 245.5459 0010304  37.3928  89.7794 15.14534441 24976
